0 FENGYUN 1B
1 20788U 90081A   13281.43883220 -.00000230  00000-0 -12062-3 0  9551
2 20788 099.0031 314.9818 0014911 291.0260 181.2231 14.02495311182020
0 FENGYUN 1B
1 20788U 90081A   13282.79577631 -.00000208  00000-0 -10648-3 0  9561
2 20788 099.0028 316.3228 0014950 286.8606 192.8126 14.02494765182210
0 FENGYUN 1B
1 20788U 90081A   13284.13748017 -.00000170  00000-0 -81418-4 0  9572
2 20788 099.0024 317.6488 0014969 282.7868 127.4019 14.02494123182407
0 FENGYUN 1B
1 20788U 90081A   13285.43404308 -.00000155  00000-0 -71781-4 0  9584
2 20788 099.0020 318.9301 0015040 278.8247 194.0865 14.02493503182588
0 FENGYUN 1B
1 20788U 90081A   13286.78946881 -.00000116  00000-0 -46554-4 0  9598
2 20788 099.0015 320.2696 0015137 274.7065 197.9587 14.02492925182776
0 FENGYUN 1B
1 20788U 90081A   13288.13299611 -.00000062  00000-0 -11768-4 0  9602
2 20788 099.0010 321.5973 0015197 270.6884 141.6858 14.02492631182965
0 FENGYUN 1B
1 20788U 90081A   13289.13599825 -.00000035  00000-0  60810-5 0  9616
2 20788 099.0007 322.5883 0015242 267.6726 166.0518 14.02492461183106
0 FENGYUN 1B
1 20788U 90081A   13290.42806022  .00000001  00000-0  29375-4 0  9623
2 20788 099.0005 323.8648 0015302 263.8067 209.9210 14.02492092183285
0 FENGYUN 1B
1 20788U 90081A   13291.42894925  .00000033  00000-0  50428-4 0  9632
2 20788 099.0004 324.8535 0015366 260.8560 223.5572 14.02491872183429
0 FENGYUN 1B
1 20788U 90081A   13292.78515883  .00000095  00000-0  90201-4 0  9647
2 20788 099.0004 326.1932 0015487 256.9390 231.1778 14.02491628183619
0 FENGYUN 1B
1 20788U 90081A   13294.05419638  .00000143  00000-0  12154-3 0  9655
2 20788 099.0004 327.4468 0015541 253.2275 158.7043 14.02491564183797
0 FENGYUN 1B
1 20788U 90081A   13295.12715272  .00000197  00000-0  15633-3 0  9662
2 20788 099.0005 328.5068 0015618 250.1775 176.1048 14.02491569183943
